NORAD_CAT_ID,OBJECT_NAME,OBJECT_TYPE,EPOCH,MEAN_MOTION,ECCENTRICITY,INCLINATION,RA_OF_ASC_NODE,ARG_OF_PERICENTER,MEAN_ANOMALY,BSTAR,MEAN_MOTION_DOT,MEAN_MOTION_DDOT,TLE_LINE0,TLE_LINE1,TLE_LINE2,SEMIMAJOR_AXIS,PERIOD,APOGEE,PERIGEE,DECAYED
52475.0,STARLINK-3882,PAYLOAD,2023-01-08 19:36:45,15.08831889,0.0002146,53.2138,208.0396,42.5856,317.5302,0.00010842,1.437e-05,0.0,0 STARLINK-3882,1 52475U 22049AA  23008.81719655  .00001437  00000-0  10842-3 0  9998,2 52475  53.2138 208.0396 0002146  42.5856 317.5302 15.08831889 37752,6917.905,95.438,541.255,538.286,0.0
52475.0,STARLINK-3882,PAYLOAD,2023-01-09 11:30:37,15.08838024,0.000228,53.2139,205.0663,43.2532,316.8639,0.00016496,2.338e-05,0.0,0 STARLINK-3882,1 52475U 22049AA  23009.47959686  .00002338  00000-0  16496-3 0  9993,2 52475  53.2139 205.0663 0002280  43.2532 316.8639 15.08838024 37859,6917.886,95.438,541.3290000000002,538.174,0.0
52475.0,STARLINK-3882,PAYLOAD,2023-01-09 16:16:46,15.0884016,0.0002279,53.2137,204.1738,44.5581,315.5594,0.00018293,2.624e-05,0.0,0 STARLINK-3882,1 52475U 22049AA  23009.67831619  .00002624  00000-0  18293-3 0  9995,2 52475  53.2137 204.1738 0002279  44.5581 315.5594 15.08840160 38048,6917.88,95.438,541.321,538.168,0.0
52475.0,STARLINK-3882,PAYLOAD,2023-01-10 12:56:47,15.08843121,0.0002291,53.2136,200.3073,47.2469,312.8715,0.00018724,2.693e-05,0.0,0 STARLINK-3882,1 52475U 22049AA  23010.53943445  .00002693  00000-0  18724-3 0  9998,2 52475  53.2136 200.3073 0002291  47.2469 312.8715 15.08843121 38018,6917.871,95.437,541.321,538.151,0.0
52475.0,STARLINK-3882,PAYLOAD,2023-01-10 19:18:19,15.08839397,0.0002325,53.2136,199.118,46.9792,313.1394,0.0001077,1.426e-05,0.0,0 STARLINK-3882,1 52475U 22049AA  23010.80439647  .00001426  00000-0  10770-3 0  9998,2 52475  53.2136 199.1180 0002325  46.9792 313.1394 15.08839397 38214,6917.882,95.438,541.356,538.139,0.0
52475.0,STARLINK-3882,PAYLOAD,2023-01-11 12:47:34,15.08834466,0.0002337,53.2142,195.8467,45.3736,314.7446,3.4417e-05,2.59e-06,0.0,0 STARLINK-3882,1 52475U 22049AA  23011.53303971  .00000259  00000-0  34417-4 0  9997,2 52475  53.2142 195.8467 0002337  45.3736 314.7446 15.08834466 38167,6917.897,95.438,541.379,538.146,0.0
52475.0,STARLINK-3882,PAYLOAD,2023-01-11 19:09:07,15.08836423,0.0002335,53.2148,194.6574,46.4327,313.6858,8.656799999999999e-05,1.09e-05,0.0,0 STARLINK-3882,1 52475U 22049AA  23011.79800049  .00001090  00000-0  86568-4 0  9991,2 52475  53.2148 194.6574 0002335  46.4327 313.6858 15.08836423 38367,6917.891,95.438,541.372,538.141,0.0
52475.0,STARLINK-3882,PAYLOAD,2023-01-12 18:59:54,15.08840723,0.0002385,53.2146,190.197,47.4342,312.6851,7.6568e-05,9.3e-06,0.0,0 STARLINK-3882,1 52475U 22049AA  23012.79159804  .00000930  00000-0  76568-4 0  9999,2 52475  53.2146 190.1970 0002385  47.4342 312.6851 15.08840723 38358,6917.8780000000015,95.438,541.393,538.0930000000002,0.0
52475.0,STARLINK-3882,PAYLOAD,2023-01-13 04:32:13,15.08837404,0.0002389,53.2142,188.4131,48.6931,311.4267,0.00010655,1.408e-05,0.0,0 STARLINK-3882,1 52475U 22049AA  23013.18904118  .00001408  00000-0  10655-3 0  9994,2 52475  53.2142 188.4131 0002389  48.6931 311.4267 15.08837404 38578,6917.888000000001,95.438,541.406,538.101,0.0
52475.0,STARLINK-3882,PAYLOAD,2023-01-13 14:04:31,15.08839103,0.000236,53.2144,186.6288,49.9105,310.2093,0.00011797,1.59e-05,0.0,0 STARLINK-3882,1 52475U 22049AA  23013.58648063  .00001590  00000-0  11797-3 0  9992,2 52475  53.2144 186.6288 0002360  49.9105 310.2093 15.08839103 38470,6917.883000000001,95.438,541.381,538.116,0.0
52475.0,STARLINK-3882,PAYLOAD,2023-01-14 13:55:19,15.08840587,0.0002359,53.2145,182.1682,54.7169,305.4043,5.8538e-05,6.43e-06,0.0,0 STARLINK-3882,1 52475U 22049AA  23014.58008142  .00000643  00000-0  58538-4 0  9994,2 52475  53.2145 182.1682 0002359  54.7169 305.4043 15.08840587 38785,6917.879,95.438,541.376,538.112,0.0
52475.0,STARLINK-3882,PAYLOAD,2023-01-15 10:35:19,15.08840825,0.0002307,53.2137,178.3044,55.3538,304.7671,5.2282e-05,5.44e-06,0.0,0 STARLINK-3882,1 52475U 22049AA  23015.44120113  .00000544  00000-0  52282-4 0  9993,2 52475  53.2137 178.3044 0002307  55.3538 304.7671 15.08840825 38756,6917.878000000001,95.438,541.339,538.1469999999999,0.0
52475.0,STARLINK-3882,PAYLOAD,2023-01-15 16:56:52,15.0884055,0.0002164,53.2141,177.1147,54.2154,305.9039,4.0612e-05,3.58e-06,0.0,0 STARLINK-3882,1 52475U 22049AA  23015.70616095  .00000358  00000-0  40612-4 0  9998,2 52475  53.2141 177.1147 0002164  54.2154 305.9039 15.08840550 38953,6917.879,95.438,541.241,538.247,0.0
52475.0,STARLINK-3882,PAYLOAD,2023-01-16 13:36:53,15.08838849,0.0001994,53.215,173.2465,62.4766,297.6428,5.6914e-05,6.18e-06,0.0,0 STARLINK-3882,1 52475U 22049AA  23016.56728116  .00000618  00000-0  56914-4 0  9992,2 52475  53.2150 173.2465 0001994  62.4766 297.6428 15.08838849 38927,6917.884,95.438,541.128,538.369,0.0
52475.0,STARLINK-3882,PAYLOAD,2023-01-16 16:47:39,15.08838218,0.000185,53.2157,172.6526,61.1832,298.9346,0.00012688,1.732e-05,0.0,0 STARLINK-3882,1 52475U 22049AA  23016.69975899  .00001732  00000-0  12688-3 0  9995,2 52475  53.2157 172.6526 0001850  61.1832 298.9346 15.08838218 38941,6917.886,95.438,541.031,538.471,0.0
52475.0,STARLINK-3882,PAYLOAD,2023-01-17 13:27:40,15.08834452,0.0002134999999999,53.2154,168.7867,60.6027,299.5178,4.8032e-05,4.76e-06,0.0,0 STARLINK-3882,1 52475U 22049AA  23017.56088611  .00000476  00000-0  48032-4 0  9996,2 52475  53.2154 168.7867 0002135  60.6027 299.5178 15.08834452 39238,6917.897,95.438,541.239,538.285,0.0
52475.0,STARLINK-3882,PAYLOAD,2023-01-17 16:38:26,15.08835491,0.0001983,53.2154,168.1915,63.3253,296.7942,7.8732e-05,9.65e-06,0.0,0 STARLINK-3882,1 52475U 22049AA  23017.69336466  .00000965  00000-0  78732-4 0  9997,2 52475  53.2154 168.1915 0001983  63.3253 296.7942 15.08835491 39093,6917.894,95.438,541.131,538.387,0.0
52475.0,STARLINK-3882,PAYLOAD,2023-01-18 13:18:27,15.08841429,0.0001889999999999,53.2157,164.3264,64.8421,295.2767,0.00011608,1.56e-05,0.0,0 STARLINK-3882,1 52475U 22049AA  23018.55448103  .00001560  00000-0  11608-3 0  9995,2 52475  53.2157 164.3264 0001890  64.8421 295.2767 15.08841429 39223,6917.876,95.437,541.048,538.434,0.0
52475.0,STARLINK-3882,PAYLOAD,2023-01-18 16:29:12,15.08848804,0.0001885,53.2157,163.732,64.4815,295.6372,0.00018227,2.615e-05,0.0,0 STARLINK-3882,1 52475U 22049AA  23018.68695510  .00002615  00000-0  18227-3 0  9991,2 52475  53.2157 163.7320 0001885  64.4815 295.6372 15.08848804 39406,6917.853,95.437,541.0219999999999,538.414,0.0
52475.0,STARLINK-3882,PAYLOAD,2023-01-18 18:04:35,15.08853274,0.0001918,53.2156,163.4342,65.779,294.3402,0.00018432,2.648e-05,0.0,0 STARLINK-3882,1 52475U 22049AA  23018.75319236  .00002648  00000-0  18432-3 0  9991,2 52475  53.2156 163.4342 0001918  65.7790 294.3402 15.08853274 39259,6917.84,95.437,541.0319999999999,538.378,0.0
52475.0,STARLINK-3882,PAYLOAD,2023-01-19 09:58:28,15.08835178,0.0002156,53.2156,160.4603,69.4906,290.6317,6.3998e-05,7.299999999999999e-06,0.0,0 STARLINK-3882,1 52475U 22049AA  23019.41560947  .00000730  00000-0  63998-4 0  9990,2 52475  53.2156 160.4603 0002156  69.4906 290.6317 15.08835178 39517,6917.895,95.438,541.252,538.269,0.0
52475.0,STARLINK-3882,PAYLOAD,2023-01-20 11:24:38,15.0884286,0.0001827,53.2149,155.7028,79.5804,280.5394,1.9236e-05,1.8e-07,0.0,0 STARLINK-3882,1 52475U 22049AA  23020.47544382  .00000018  00000-0  19236-4 0  9998,2 52475  53.2149 155.7028 0001827  79.5804 280.5394 15.08842860 39676,6917.871999999999,95.437,541.001,538.4730000000001,0.0
52475.0,STARLINK-3882,PAYLOAD,2023-01-20 17:46:10,15.08860186,0.0001946,53.2153,154.5143,83.1587,276.9626,3.4737e-05,2.65e-06,0.0,0 STARLINK-3882,1 52475U 22049AA  23020.74039405  .00000265  00000-0  34737-4 0  9990,2 52475  53.2153 154.5143 0001946  83.1587 276.9626 15.08860186 39710,6917.819,95.436,541.03,538.337,0.0
52475.0,STARLINK-3882,PAYLOAD,2023-01-21 01:43:06,15.08840106,0.0002189,53.2151,153.0256,76.4226,283.701,-5.9266000000000005e-05,-1.231e-05,0.0,0 STARLINK-3882,1 52475U 22049AA  23021.07160380 -.00001231  00000-0 -59266-4 0  9994,2 52475  53.2151 153.0256 0002189  76.4226 283.7010 15.08840106 39760,6917.88,95.438,541.259,538.231,0.0
52475.0,STARLINK-3882,PAYLOAD,2023-01-22 14:16:59,15.08836045,0.0001436,53.2149,146.1879,88.8316,271.2841,5.2078000000000005e-05,5.41e-06,0.0,0 STARLINK-3882,1 52475U 22049AA  23022.59512997  .00000541  00000-0  52078-4 0  9992,2 52475  53.2149 146.1879 0001436  88.8316 271.2841 15.08836045 39998,6917.892,95.438,540.751,538.764,0.0
52475.0,STARLINK-3882,PAYLOAD,2023-01-24 06:01:38,15.08827156,8.36e-05,53.2158,138.7535,86.2748,273.834,-0.00016763,-2.954e-05,0.0,0 STARLINK-3882,1 52475U 22049AA  23024.25113453 -.00002954  00000-0 -16763-3 0  9993,2 52475  53.2158 138.7535 0000836  86.2748 273.8340 15.08827156 40243,6917.92,95.438,540.363,539.206,0.0
52475.0,STARLINK-3882,PAYLOAD,2023-01-24 12:23:09,15.08846091,0.0001357,53.2161,137.5634,110.5489,249.5649,0.00017143,2.442e-05,0.0,0 STARLINK-3882,1 52475U 22049AA  23024.51608695  .00002442  00000-0  17143-3 0  9992,2 52475  53.2161 137.5634 0001357 110.5489 249.5649 15.08846091 40281,6917.861999999999,95.437,540.6659999999999,538.788,0.0
52475.0,STARLINK-3882,PAYLOAD,2023-01-25 13:49:20,15.08839419,0.0001147,53.2151,132.8057,106.7737,253.3381,9.5043e-05,1.225e-05,0.0,0 STARLINK-3882,1 52475U 22049AA  23025.57593307  .00001225  00000-0  95043-4 0  9996,2 52475  53.2151 132.8057 0001147 106.7737 253.3381 15.08839419 40447,6917.882,95.438,540.5409999999999,538.9540000000001,0.0
52475.0,STARLINK-3882,PAYLOAD,2023-01-26 13:40:07,15.08850118,0.0001077,53.2153,128.3453,105.4229,254.6883,0.00025293,3.741e-05,0.0,0 STARLINK-3882,1 52475U 22049AA  23026.56952837  .00003741  00000-0  25293-3 0  9997,2 52475  53.2153 128.3453 0001077 105.4229 254.6883 15.08850118 40432,6917.849,95.437,540.46,538.969,0.0
